OBJECT_NAME,OBJECT_ID,EPOCH,MEAN_MOTION,ECCENTRICITY,INCLINATION,RA_OF_ASC_NODE,ARG_OF_PERICENTER,MEAN_ANOMALY,EPHEMERIS_TYPE,CLASSIFICATION_TYPE,NORAD_CAT_ID,ELEMENT_SET_NO,REV_AT_EPOCH,BSTAR,MEAN_MOTION_DOT,MEAN_MOTION_DDOT
STARLINK-37745,2026-115X,2026-06-05T06:00:04.999968,15.80881154,.00012115,97.2830,173.0900,117.5182,234.6510,0,U,69232,999,277,-.44880859E-3,-.85526E-3,0
STARLINK-37739,2026-115Y,2026-06-05T06:00:04.999968,15.80823789,.00010405,97.2835,173.0788,111.3399,213.2484,0,U,69233,999,277,.59137191E-4,.11204E-3,0
STARLINK-37755,2026-115Z,2026-06-05T06:00:04.999968,15.80119530,.00011013,97.2836,173.0827,91.8937,246.0660,0,U,69234,999,277,-.12302014E-1,-.1981395E-1,0
TJS-24,2026-116A,2026-05-26T22:03:24.237792,2.27837712,.7312999,19.5460,149.2488,179.4286,182.6145,0,U,69235,999,2,.21296435E-3,.5573E-4,-.371334E-6
STARLINK-37665,2026-117A,2026-06-05T06:00:04.999968,15.96151961,.00005587,53.1584,303.7136,68.6822,254.2755,0,U,69238,999,225,-.53311258E-2,-.2238893E-1,.1406739E-2
STARLINK-37558,2026-117B,2026-06-05T06:00:04.999968,15.96404289,.00005316,53.1582,303.7039,65.9018,261.7497,0,U,69239,999,225,-.54059364E-2,-.2301177E-1,.14870381E-2
STARLINK-37680,2026-117C,2026-06-05T06:00:04.999968,15.96646431,.0000436,53.1584,303.6936,63.2318,269.3235,0,U,69240,999,224,-.52976007E-2,-.2285308E-1,.1471415E-2
STARLINK-37742,2026-117D,2026-06-05T06:00:04.999968,15.96995662,.00004995,53.1583,303.6848,63.9670,272.6991,0,U,69241,999,225,-.50937986E-2,-.2240428E-1,.1422057E-2
STARLINK-37718,2026-117E,2026-06-05T06:00:04.999968,15.97316136,.00004731,53.1583,303.6764,67.4320,273.2438,0,U,69242,999,224,-.50584898E-2,-.2264365E-1,.14567055E-2
STARLINK-37735,2026-117F,2026-06-05T06:00:04.999968,15.97291289,.00004046,53.1580,303.6687,64.0415,280.4225,0,U,69243,999,225,-.52091226E-2,-.2327999E-1,.1536257E-2
STARLINK-37757,2026-117G,2026-06-05T06:00:04.999968,15.97733817,.00005426,53.1581,303.6556,68.4954,282.1525,0,U,69244,999,225,-.49769864E-2,-.2279952E-1,.14832168E-2
STARLINK-37767,2026-117H,2026-06-05T06:00:04.999968,15.98614414,.00004035,53.1577,303.6300,75.9369,287.1291,0,U,69245,999,225,-.46754895E-2,-.2250188E-1,.14610731E-2
STARLINK-35759,2026-117J,2026-06-05T06:00:04.999968,15.98708398,.00005726,53.1577,303.6228,72.7162,293.7369,0,U,69246,999,230,-.46728528E-2,-.2260765E-1,.14759779E-2
STARLINK-37238,2026-117K,2026-06-05T06:00:04.999968,15.99564025,.00003915,53.1577,303.6040,71.1072,304.2881,0,U,69247,999,225,-.4290654E-2,-.217958E-1,.1389643E-2
STARLINK-37412,2026-117L,2026-06-05T06:00:04.999968,16.00336339,.00004485,53.1575,303.5861,78.4293,305.7170,0,U,69248,999,232,-.41187345E-2,-.2186654E-1,.14112423E-2
STARLINK-37398,2026-117M,2026-06-05T06:00:04.999968,16.00333244,.00003709,53.1573,303.5795,66.4870,320.5951,0,U,69249,999,232,-.41124878E-2,-.2182977E-1,.14066274E-2
STARLINK-37499,2026-117N,2026-06-05T06:00:04.999968,16.00589899,.00004181,53.1574,303.5713,69.3886,321.7412,0,U,69250,999,232,-.40848286E-2,-.2200407E-1,.14327619E-2
STARLINK-37489,2026-117P,2026-06-05T06:00:04.999968,16.00876208,.00004821,53.1576,303.5585,72.7880,324.3787,0,U,69251,999,232,-.40034957E-2,-.2192641E-1,.14279764E-2
STARLINK-37434,2026-117Q,2026-06-05T06:00:04.999968,16.01330968,.00006025,53.1572,303.5471,64.5126,338.0206,0,U,69252,999,225,-.37674735E-2,-.2119284E-1,.13449444E-2
STARLINK-37368,2026-117R,2026-06-05T06:00:04.999968,16.02459499,.00005324,53.1572,303.5203,61.4944,354.0085,0,U,69253,999,232,-.33556788E-2,-.201784E-1,.12414893E-2
STARLINK-37517,2026-117S,2026-06-05T05:45:16.850304,16.03262850,.00020912,53.1576,303.5671,198.8958,161.1998,0,U,69254,999,108,-.45005236E-3,-.290266E-2,.42372027E-4
STARLINK-37378,2026-117T,2026-06-05T06:00:04.999968,16.02555980,.00008184,53.1573,303.5040,72.0041,351.2418,0,U,69255,999,224,-.30819349E-2,-.1865647E-1,.10715756E-2
STARLINK-37396,2026-117U,2026-06-05T06:00:04.999968,16.03147673,.00005679,53.1572,303.4896,72.5966,357.4152,0,U,69256,999,232,-.32643505E-2,-.2044469E-1,.12837063E-2
STARLINK-37508,2026-117V,2026-06-05T06:00:04.999968,16.03445377,.000049,53.1572,303.4785,69.0403,6.1348,0,U,69257,999,224,-.32162656E-2,-.2050433E-1,.12956554E-2
STARLINK-37276,2026-117W,2026-06-05T06:00:04.999968,16.06003537,.00004819,53.1569,303.4573,56.8562,28.3542,0,U,69258,999,224,-.41315504E-3,-.314533E-2,.49049248E-4
STARLINK-37518,2026-117X,2026-06-05T06:00:04.999968,16.06758944,.00005787,53.1568,303.4461,50.2560,40.6911,0,U,69259,999,225,-.16496599E-2,-.1296105E-1,.57437406E-3
STARLINK-37478,2026-117Y,2026-06-05T06:00:04.999968,16.06639440,.00006306,53.1570,303.4356,52.8487,43.1386,0,U,69260,999,225,-.24472794E-2,-.1898662E-1,.11650235E-2
STARLINK-37506,2026-117Z,2026-06-05T06:00:04.999968,16.06793360,.00006543,53.1567,303.4275,54.8046,45.0139,0,U,69261,999,225,-.24680305E-2,-.1932934E-1,.12078349E-2
