STARLINK-37745          
1 69232U 26115X   26156.25005787 -.00085526  00000+0 -44881-3 0  9996
2 69232  97.2830 173.0900 0001211 117.5182 234.6510 15.80881154  2771
STARLINK-37739          
1 69233U 26115Y   26156.25005787  .00011204  00000+0  59137-4 0  9998
2 69233  97.2835 173.0788 0001040 111.3399 213.2484 15.80823789  2776
STARLINK-37755          
1 69234U 26115Z   26156.25005787 -.01981395  00000+0 -12302-1 0  9999
2 69234  97.2836 173.0827 0001101  91.8937 246.0660 15.80119530  2772
TJS-24                  
1 69235U 26116A   26146.91903053  .00005573 -37133-6  21296-3 0  9997
2 69235  19.5460 149.2488 7312999 179.4286 182.6145  2.27837712    23
STARLINK-37665          
1 69238U 26117A   26156.25005787 -.02238893  14067-2 -53311-2 0  9991
2 69238  53.1584 303.7136 0000558  68.6822 254.2755 15.96151961  2252
STARLINK-37558          
1 69239U 26117B   26156.25005787 -.02301177  14870-2 -54059-2 0  9990
2 69239  53.1582 303.7039 0000531  65.9018 261.7497 15.96404289  2251
STARLINK-37680          
1 69240U 26117C   26156.25005787 -.02285308  14714-2 -52976-2 0  9992
2 69240  53.1584 303.6936 0000436  63.2318 269.3235 15.96646431  2248
STARLINK-37742          
1 69241U 26117D   26156.25005787 -.02240428  14221-2 -50938-2 0  9996
2 69241  53.1583 303.6848 0000499  63.9670 272.6991 15.96995662  2257
STARLINK-37718          
1 69242U 26117E   26156.25005787 -.02264365  14567-2 -50585-2 0  9994
2 69242  53.1583 303.6764 0000473  67.4320 273.2438 15.97316136  2244
STARLINK-37735          
1 69243U 26117F   26156.25005787 -.02327999  15363-2 -52091-2 0  9997
2 69243  53.1580 303.6687 0000404  64.0415 280.4225 15.97291289  2254
STARLINK-37757          
1 69244U 26117G   26156.25005787 -.02279952  14832-2 -49770-2 0  9993
2 69244  53.1581 303.6556 0000542  68.4954 282.1525 15.97733817  2250
STARLINK-37767          
1 69245U 26117H   26156.25005787 -.02250188  14611-2 -46755-2 0  9999
2 69245  53.1577 303.6300 0000403  75.9369 287.1291 15.98614414  2259
STARLINK-35759          
1 69246U 26117J   26156.25005787 -.02260765  14760-2 -46729-2 0  9998
2 69246  53.1577 303.6228 0000572  72.7162 293.7369 15.98708398  2302
STARLINK-37238          
1 69247U 26117K   26156.25005787 -.02179580  13896-2 -42907-2 0  9996
2 69247  53.1577 303.6040 0000391  71.1072 304.2881 15.99564025  2256
STARLINK-37412          
1 69248U 26117L   26156.25005787 -.02186654  14112-2 -41187-2 0  9998
2 69248  53.1575 303.5861 0000448  78.4293 305.7170 16.00336339  2326
STARLINK-37398          
1 69249U 26117M   26156.25005787 -.02182977  14066-2 -41125-2 0  9993
2 69249  53.1573 303.5795 0000370  66.4870 320.5951 16.00333244  2327
STARLINK-37499          
1 69250U 26117N   26156.25005787 -.02200407  14328-2 -40848-2 0  9996
2 69250  53.1574 303.5713 0000418  69.3886 321.7412 16.00589899  2326
STARLINK-37489          
1 69251U 26117P   26156.25005787 -.02192641  14280-2 -40035-2 0  9992
2 69251  53.1576 303.5585 0000482  72.7880 324.3787 16.00876208  2326
STARLINK-37434          
1 69252U 26117Q   26156.25005787 -.02119284  13449-2 -37675-2 0  9997
2 69252  53.1572 303.5471 0000602  64.5126 338.0206 16.01330968  2252
STARLINK-37368          
1 69253U 26117R   26156.25005787 -.02017840  12415-2 -33557-2 0  9990
2 69253  53.1572 303.5203 0000532  61.4944 354.0085 16.02459499  2325
STARLINK-37517          
1 69254U 26117S   26156.23977836 -.00290266  42372-4 -45005-3 0  9994
2 69254  53.1576 303.5671 0002091 198.8958 161.1998 16.03262850  1087
STARLINK-37378          
1 69255U 26117T   26156.25005787 -.01865647  10716-2 -30819-2 0  9997
2 69255  53.1573 303.5040 0000818  72.0041 351.2418 16.02555980  2242
STARLINK-37396          
1 69256U 26117U   26156.25005787 -.02044469  12837-2 -32644-2 0  9994
2 69256  53.1572 303.4896 0000567  72.5966 357.4152 16.03147673  2321
STARLINK-37508          
1 69257U 26117V   26156.25005787 -.02050433  12957-2 -32163-2 0  9992
2 69257  53.1572 303.4785 0000490  69.0403   6.1348 16.03445377  2249
STARLINK-37276          
1 69258U 26117W   26156.25005787 -.00314533  49049-4 -41316-3 0  9990
2 69258  53.1569 303.4573 0000481  56.8562  28.3542 16.06003537  2244
STARLINK-37518          
1 69259U 26117X   26156.25005787 -.01296105  57437-3 -16497-2 0  9996
2 69259  53.1568 303.4461 0000578  50.2560  40.6911 16.06758944  2250
STARLINK-37478          
1 69260U 26117Y   26156.25005787 -.01898662  11650-2 -24473-2 0  9993
2 69260  53.1570 303.4356 0000630  52.8487  43.1386 16.06639440  2256
STARLINK-37506          
1 69261U 26117Z   26156.25005787 -.01932934  12078-2 -24680-2 0  9990
2 69261  53.1567 303.4275 0000654  54.8046  45.0139 16.06793360  2251
